YAOGAN-3                
1 32289U 07055A   26194.84032950  .00001615  00000+0  16951-3 0  9991
2 32289  97.8149 224.4543 0001640  81.1373 279.0030 14.90879643  9845
YAOGAN-4                
1 33446U 08061A   26194.81446249  .00000468  00000+0  63760-4 0  9998
2 33446  97.9303 128.1290 0013960 350.2314   9.8626 14.83249773949611
YAOGAN-7                
1 36110U 09069A   26194.69442023  .00000223  00000+0  38073-4 0  9998
2 36110  98.0035  80.3936 0023604 316.4079  43.5266 14.78034681893549
ZIYUAN 1-02C (ZY 1-02C) 
1 38038U 11079A   26194.87243843  .00000249  00000+0  96052-4 0  9991
2 38038  98.4069 261.6216 0005495 219.3929 266.0297 14.38234982763048
YAOGAN-22               
1 40275U 14063A   26194.42329667 -.00000062  00000+0 -39220-4 0  9992
2 40275 100.7759 346.1359 0006837 128.8633 231.3089 13.15531621563261
YAOGAN-24               
1 40310U 14072A   26194.85718311  .00000192  00000+0  35492-4 0  9996
2 40310  98.1514 332.4222 0014493 173.8074 186.3317 14.76117144627658
YAOGAN-26               
1 40362U 14088A   26194.89729236  .00010025  00000+0  19079-3 0  9990
2 40362  97.0643 194.4994 0002087 348.8364  11.2841 15.48406033641832
YAOGAN-27               
1 40878U 15040A   26194.86389978  .00000201  00000+0  64071-3 0  9990
2 40878 100.1160 180.0901 0008517 148.0309 212.1322 13.16071862521177
YAOGAN-28               
1 41026U 15064A   26194.85222917  .00004208  00000+0  15762-3 0  9994
2 41026  97.3104 332.5806 0012079  97.2365 263.0248 15.27749373594750
YAOGAN-29               
1 41038U 15069A   26194.89497978 -.00000010  00000+0  54536-5 0  9999
2 41038  98.0024 223.5682 0000824  13.1391 346.9843 14.83104215574586
